{"type":"FeatureCollection","features":[{"type":"Feature","geometry":{"type":"LineString","coordinates":[[150.97853267592873,-33.386795252826829],[150.98034658199816,-33.387421584225848],[150.9822174179005,-33.38795169564662]]},"properties":{"generalname":"WEBBS CREEK FERRY"}},{"type":"Feature","geometry":{"type":"LineString","coordinates":[[150.98788618529693,-33.380177926691267],[150.98834223661044,-33.379901916791859],[150.98843673488679,-33.379844726110889],[150.9903667787494,-33.3786765760373]]},"properties":{"generalname":"WISEMANS FERRY"}}]}